ONEWEB-0289             
1 49079U 21075E   23290.99796176  .00000031  00000+0  45969-4 0  9994
2 49079  87.9266 199.2888 0001951  73.2654 286.8691 13.17651385106048
ONEWEB-0290             
1 49080U 21075F   23291.51264040 -.00000080  00000+0 -23970-3 0  9998
2 49080  87.9185 199.1692 0001520  67.9319 292.1973 13.17650448106505
ONEWEB-0291             
1 49081U 21075G   23291.49577035  .00000066  00000+0  13591-3 0  9997
2 49081  87.9252 199.1939 0001486  77.4184 282.7114 13.17649370106506
ONEWEB-0293             
1 49082U 21075H   23290.98953333  .00000036  00000+0  60487-4 0  9994
2 49082  87.9269 199.2882 0001513  71.6298 288.4998 13.17650958105478
ONEWEB-0294             
1 49083U 21075J   23291.46464401  .00003023  00000+0  83666-2 0  9993
2 49083  87.9066 184.0904 0001041  71.5393 288.5849 13.12432360107975
ONEWEB-0295             
1 49084U 21075K   23291.44725411  .00000389  00000+0  96836-3 0  9999
2 49084  87.9270 199.1687 0001389  85.0212 275.1078 13.17649253106457
ONEWEB-0296             
1 49085U 21075L   23291.44876498  .00000108  00000+0  26523-3 0  9997
2 49085  87.9061 184.0915 0000975  98.3663 261.7576 13.12445085107974
ONEWEB-0297             
1 49086U 21075M   23291.40215041  .00001946  00000+0  53737-2 0  9992
2 49086  87.9074 184.0876 0002285  79.6434 280.4952 13.12436100108570
